{
    "links": {
        "self": "http://www.neowsapp.com/rest/v1/neo/3702316?api_key=iIulBulltgU6a56xZRHN4H3l9WmuAYTsLGpBGhQ2"
    },
    "id": "3702316",
    "neo_reference_id": "3702316",
    "name": "(2014 XF8)",
    "designation": "2014 XF8",
    "nasa_jpl_url": "http://ssd.jpl.nasa.gov/sbdb.cgi?sstr=3702316",
    "absolute_magnitude_h": 20.0,
    "estimated_diameter": {
        "kilometers": {
            "estimated_diameter_min": 0.2658,
            "estimated_diameter_max": 0.5943468684
        },
        "meters": {
            "estimated_diameter_min": 265.8,
            "estimated_diameter_max": 594.3468684194
        },
        "miles": {
            "estimated_diameter_min": 0.1651604118,
            "estimated_diameter_max": 0.369309908
        },
        "feet": {
            "estimated_diameter_min": 872.047272,
            "estimated_diameter_max": 1949.9569797852
        }
    },
    "is_potentially_hazardous_asteroid": false,
    "close_approach_data": [
        {
            "close_approach_date": "1974-11-10",
            "close_approach_date_full": "1974-Nov-10 07:26",
            "epoch_date_close_approach": 153300360000,
            "relative_velocity": {
                "kilometers_per_second": "11.216365765",
                "kilometers_per_hour": "40378.9167538459",
                "miles_per_hour": "25089.8885796328"
            },
            "miss_distance": {
                "astronomical": "0.4253791273",
                "lunar": "165.4724805197",
                "kilometers": "63635811.386538851",
                "miles": "39541459.6337481038"
            },
            "orbiting_body": "Earth"
        },
        {
            "close_approach_date": "2014-11-08",
            "close_approach_date_full": "2014-Nov-08 04:18",
            "epoch_date_close_approach": 1415420280000,
            "relative_velocity": {
                "kilometers_per_second": "11.5801284275",
                "kilometers_per_hour": "41688.4623389345",
                "miles_per_hour": "25903.589279434"
            },
            "miss_distance": {
                "astronomical": "0.4268547344",
                "lunar": "166.0464916816",
                "kilometers": "63856559.065655728",
                "miles": "39678625.8810679264"
            },
            "orbiting_body": "Earth"
        },
        {
            "close_approach_date": "2054-11-06",
            "close_approach_date_full": "2054-Nov-06 13:53",
            "epoch_date_close_approach": 2677585980000,
            "relative_velocity": {
                "kilometers_per_second": "12.2593269332",
                "kilometers_per_hour": "44133.5769596611",
                "miles_per_hour": "27422.8884169628"
            },
            "miss_distance": {
                "astronomical": "0.4404580036",
                "lunar": "171.3381634004",
                "kilometers": "65891579.163012332",
                "miles": "40943128.7337889016"
            },
            "orbiting_body": "Earth"
        },
        {
            "close_approach_date": "2094-11-05",
            "close_approach_date_full": "2094-Nov-05 23:42",
            "epoch_date_close_approach": 3939838920000,
            "relative_velocity": {
                "kilometers_per_second": "12.9690451085",
                "kilometers_per_hour": "46688.5623907159",
                "miles_per_hour": "29010.4570032757"
            },
            "miss_distance": {
                "astronomical": "0.4594205491",
                "lunar": "178.7145935999",
                "kilometers": "68728335.579590417",
                "miles": "42705807.4345530746"
            },
            "orbiting_body": "Earth"
        }
    ],
    "orbital_data": {
        "orbit_id": "11",
        "orbit_determination_date": "2017-04-06 08:36:53",
        "first_observation_date": "2014-12-12",
        "last_observation_date": "2015-01-14",
        "data_arc_in_days": 33,
        "observations_used": 34,
        "orbit_uncertainty": "6",
        "minimum_orbit_intersection": ".420708",
        "jupiter_tisserand_invariant": "3.297",
        "epoch_osculation": "2459000.5",
        "eccentricity": ".4759507672567155",
        "semi_major_axis": "2.364428803623559",
        "inclination": "22.44794704850864",
        "ascending_node_longitude": "82.04477078680544",
        "orbital_period": "1327.968546910294",
        "perihelion_distance": "1.239077100415048",
        "perihelion_argument": "287.6583616887379",
        "aphelion_distance": "3.489780506832069",
        "perihelion_time": "2459589.461552762829",
        "mean_anomaly": "200.3379662207158",
        "mean_motion": ".2710907580135016",
        "equinox": "J2000",
        "orbit_class": {
            "orbit_class_type": "AMO",
            "orbit_class_description": "Near-Earth asteroid orbits similar to that of 1221 Amor",
            "orbit_class_range": "1.017 AU < q (perihelion) < 1.3 AU"
        }
    },
    "is_sentry_object": false
}